STARLINK-4049
1 52840U 22062L   26090.83335647 -.00684359  00000+0 -41975-1 0  9990
2 52840  53.2171 294.4639 0001932  78.9621 230.1866 15.12163368  5776
STARLINK-4110
1 53166U 22083AL  26090.83335647 -.00528454  00000+0 -32082-1 0  9997
2 53166  53.2168  64.3455 0001110  73.6359 203.2929 15.12308812  5835
STARLINK-4636
1 53731U 22107AH  26090.44318763  .00027273  00000+0  15547-2 0  9998
2 53731  53.2136 155.3458 0002885 230.5586 129.5153 15.12614058197886
